OBJECT_NAME,OBJECT_ID,EPOCH,MEAN_MOTION,ECCENTRICITY,INCLINATION,RA_OF_ASC_NODE,ARG_OF_PERICENTER,MEAN_ANOMALY,EPHEMERIS_TYPE,CLASSIFICATION_TYPE,NORAD_CAT_ID,ELEMENT_SET_NO,REV_AT_EPOCH,BSTAR,MEAN_MOTION_DOT,MEAN_MOTION_DDOT
SKYSAT-C4,2016-058B,2026-06-14T10:10:56.623008,15.48508906,.0001193,96.9169,187.3122,127.6347,232.5013,0,U,41771,999,54504,.30625E-3,.16215E-3,0
SKYSAT-C5,2016-058C,2026-06-14T08:45:36.749088,15.34434911,.0001342,97.0472,206.1311,336.4595,23.6588,0,U,41772,999,54331,.22671E-3,.7486E-4,0
SKYSAT-C2,2016-058D,2026-06-14T11:15:24.350112,15.42016481,.0004864,97.0166,187.6663,76.1712,284.0077,0,U,41773,999,54463,.29173E-3,.12371E-3,0
SKYSAT-C3,2016-058E,2026-06-13T23:38:26.058048,15.52412222,.00016272,96.9003,195.9554,87.6160,272.5280,0,U,41774,999,54561,.39860775E-3,.24284E-3,0
ALSAT-1B,2016-059C,2026-06-14T12:31:10.092576,14.72273065,.0007926,97.7748,174.4001,230.1260,129.9251,0,U,41785,999,52018,.60142E-4,.333E-5,0
PATHFINDER 1,2016-059E,2026-06-14T11:27:47.195712,14.67660387,.002759,97.8166,164.8761,212.4302,147.5209,0,U,41787,999,51931,.9524E-4,.498E-5,0
SCATSAT 1,2016-059H,2026-06-14T10:34:12.154080,14.79520248,.0053296,98.1191,229.1781,256.5818,102.9449,0,U,41790,999,10118,.1341E-3,.969E-5,0
GOKTURK 1A,2016-073A,2026-06-14T12:13:47.449344,14.62772753,.0001441,98.1262,60.2263,77.5065,282.6298,0,U,41875,999,50843,.69558E-4,.308E-5,0
RESOURCESAT-2A,2016-074A,2026-06-14T11:11:59.264160,14.21617067,.0003348,98.7533,238.9931,88.8946,271.2615,0,U,41877,999,49391,.28083E-3,.572E-5,0
CARTOSAT-2D,2017-008A,2026-06-14T12:34:27.855264,15.19315836,.0003722,97.4115,224.8796,240.2812,119.8053,0,U,41948,999,51717,.18544E-3,.3848E-4,0
SENTINEL-2B,2017-013A,2026-06-14T11:31:30.772128,14.30816554,.000119,98.5698,240.2928,85.6955,274.4364,0,U,42063,999,48425,.97565E-4,.212E-5,0
CARTOSAT-2E,2017-036C,2026-06-14T11:25:13.332000,15.19236683,.0002639,97.4286,225.3227,334.9686,25.1421,0,U,42767,999,49773,.17931E-3,.371E-4,0
FORMOSAT-5,2017-049A,2026-06-14T12:01:48.766368,14.50897980,.0012706,98.2254,240.8706,91.7685,268.4966,0,U,42920,999,46628,.48177E-4,.147E-5,0
SENTINEL-5P,2017-064A,2026-06-14T10:52:12.847872,14.19518589,.0000977,98.7925,107.6035,84.1724,275.9563,0,U,42969,999,44917,.39511E-4,.39E-6,0
SKYSAT-C11,2017-068A,2026-06-14T08:37:36.205248,15.57763800,.0000733,97.4344,314.0673,84.5716,275.5623,0,U,42987,999,48280,.35492E-3,.26289E-3,0
SKYSAT-C10,2017-068B,2026-06-14T10:09:36.360864,15.34597640,.0001142,97.4501,302.2433,93.4182,266.7191,0,U,42988,999,48193,.25842E-3,.8583E-4,0
SKYSAT-C9,2017-068C,2026-06-14T09:11:13.615008,15.41500570,.0009293,97.4420,303.1104,141.8582,218.3324,0,U,42989,999,48232,.31009E-3,.12937E-3,0
SKYSAT-C8,2017-068D,2026-06-14T08:00:38.528064,15.36926569,.0001485,97.4518,301.9417,98.0232,262.1181,0,U,42990,999,48187,.29122E-3,.10435E-3,0
SKYSAT-C7,2017-068E,2026-06-14T07:51:19.100160,15.36876330,.0007196,97.4527,302.9245,114.7492,245.4502,0,U,42991,999,48193,.2968E-3,.10628E-3,0
SKYSAT-C6,2017-068F,2026-06-14T08:12:43.303104,15.34167172,.0004293,97.4561,302.9198,144.7927,215.3600,0,U,42992,999,48188,.28152E-3,.9233E-4,0
CARTOSAT-2F,2018-004A,2026-06-14T12:11:27.591072,15.19198847,.000053,97.4796,225.1687,240.0709,120.0473,0,U,43111,999,46692,.25323E-3,.5261E-4,0
GAOFEN-1 02,2018-031A,2026-06-14T12:28:38.908128,14.76452915,.0003995,98.0534,228.0544,40.5640,319.5866,0,U,43259,999,44230,.99228E-4,.639E-5,0
GAOFEN-1 03,2018-031B,2026-06-14T11:57:12.816000,14.76465565,.0003796,98.0524,227.8913,84.4789,275.6853,0,U,43260,999,44229,.98094E-4,.631E-5,0
GAOFEN-1 04,2018-031D,2026-06-14T12:59:47.011776,14.76477748,.0002262,98.0536,228.1249,85.1906,274.9562,0,U,43262,999,44229,.18498E-3,.1236E-4,0
SENTINEL-3B,2018-039A,2026-06-14T04:10:43.814208,14.26734006,.00007536,98.6249,232.7495,83.4735,276.6531,0,U,43437,999,42369,.6031543E-4,.102E-5,0
GAOFEN-5 01,2018-043A,2026-06-14T11:00:17.155296,14.60603679,.0003035,98.4568,136.9874,88.0716,272.0831,0,U,43461,999,43129,.67275E-4,.278E-5,0
GAOFEN-6,2018-048A,2026-06-14T11:54:22.978656,14.76597015,.0011626,97.8553,228.3117,176.0515,184.0789,0,U,43484,999,43299,.14468E-3,.961E-5,0
GAOFEN-11 01,2018-063A,2026-06-14T12:50:56.541696,15.55224491,.0003461,97.1298,232.4228,9.6326,350.4995,0,U,43585,999,43993,.27706E-3,.1865E-3,0
ICESAT-2,2018-070A,2026-06-14T12:51:39.701952,15.28241837,.0005902,92.0078,290.2625,112.2743,247.9133,0,U,43613,999,43205,.33199E-3,.9137E-4,0
HYSIS,2018-096A,2026-06-14T12:06:43.126848,14.78693358,.0001894,97.9848,232.2740,108.4673,251.6744,0,U,43719,999,40702,.21813E-3,.1548E-4,0
KAZSTSAT,2018-099AB,2026-06-14T02:17:17.547936,14.99857659,.00083336,97.4265,197.1643,77.8694,282.3463,0,U,43783,999,41084,.11677537E-3,.1392E-4,0
