SKYSAT-C4               
1 41771U 16058B   26165.42426647  .00016215  00000+0  30625-3 0  9998
2 41771  96.9169 187.3122 0001193 127.6347 232.5013 15.48508906545040
SKYSAT-C5               
1 41772U 16058C   26165.36500867  .00007486  00000+0  22671-3 0  9991
2 41772  97.0472 206.1311 0001342 336.4595  23.6588 15.34434911543314
SKYSAT-C2               
1 41773U 16058D   26165.46903183  .00012371  00000+0  29173-3 0  9994
2 41773  97.0166 187.6663 0004864  76.1712 284.0077 15.42016481544638
SKYSAT-C3               
1 41774U 16058E   26164.98502382  .00024284  00000+0  39861-3 0  9998
2 41774  96.9003 195.9554 0001627  87.6160 272.5280 15.52412222545617
ALSAT-1B                
1 41785U 16059C   26165.52164459  .00000333  00000+0  60142-4 0  9997
2 41785  97.7748 174.4001 0007926 230.1260 129.9251 14.72273065520186
PATHFINDER 1            
1 41787U 16059E   26165.47762958  .00000498  00000+0  95240-4 0  9990
2 41787  97.8166 164.8761 0027590 212.4302 147.5209 14.67660387519311
SCATSAT 1               
1 41790U 16059H   26165.44041845  .00000969  00000+0  13410-3 0  9997
2 41790  98.1191 229.1781 0053296 256.5818 102.9449 14.79520248101184
GOKTURK 1A              
1 41875U 16073A   26165.50957696  .00000308  00000+0  69558-4 0  9996
2 41875  98.1262  60.2263 0001441  77.5065 282.6298 14.62772753508435
RESOURCESAT-2A          
1 41877U 16074A   26165.46665815  .00000572  00000+0  28083-3 0  9993
2 41877  98.7533 238.9931 0003348  88.8946 271.2615 14.21617067493915
CARTOSAT-2D             
1 41948U 17008A   26165.52393351  .00003848  00000+0  18544-3 0  9990
2 41948  97.4115 224.8796 0003722 240.2812 119.8053 15.19315836517176
SENTINEL-2B             
1 42063U 17013A   26165.48021727  .00000212  00000+0  97565-4 0  9998
2 42063  98.5698 240.2928 0001190  85.6955 274.4364 14.30816554484258
CARTOSAT-2E             
1 42767U 17036C   26165.47584875  .00003710  00000+0  17931-3 0  9995
2 42767  97.4286 225.3227 0002639 334.9686  25.1421 15.19236683497735
FORMOSAT-5              
1 42920U 17049A   26165.50125887  .00000147  00000+0  48177-4 0  9996
2 42920  98.2254 240.8706 0012706  91.7685 268.4966 14.50897980466286
SENTINEL-5P             
1 42969U 17064A   26165.45292648  .00000039  00000+0  39511-4 0  9992
2 42969  98.7925 107.6035 0000977  84.1724 275.9563 14.19518589449176
SKYSAT-C11              
1 42987U 17068A   26165.35944682  .00026289  00000+0  35492-3 0  9995
2 42987  97.4344 314.0673 0000733  84.5716 275.5623 15.57763800482805
SKYSAT-C10              
1 42988U 17068B   26165.42333751  .00008583  00000+0  25842-3 0  9998
2 42988  97.4501 302.2433 0001142  93.4182 266.7191 15.34597640481932
SKYSAT-C9               
1 42989U 17068C   26165.38279647  .00012937  00000+0  31009-3 0  9997
2 42989  97.4420 303.1104 0009293 141.8582 218.3324 15.41500570482324
SKYSAT-C8               
1 42990U 17068D   26165.33377926  .00010435  00000+0  29122-3 0  9997
2 42990  97.4518 301.9417 0001485  98.0232 262.1181 15.36926569481878
SKYSAT-C7               
1 42991U 17068E   26165.32730440  .00010628  00000+0  29680-3 0  9994
2 42991  97.4527 302.9245 0007196 114.7492 245.4502 15.36876330481936
SKYSAT-C6               
1 42992U 17068F   26165.34216786  .00009233  00000+0  28152-3 0  9992
2 42992  97.4561 302.9198 0004293 144.7927 215.3600 15.34167172481887
CARTOSAT-2F             
1 43111U 18004A   26165.50795823  .00005261  00000+0  25323-3 0  9993
2 43111  97.4796 225.1687 0000530 240.0709 120.0473 15.19198847466922
GAOFEN-1 02             
1 43259U 18031A   26165.51989477  .00000639  00000+0  99228-4 0  9997
2 43259  98.0534 228.0544 0003995  40.5640 319.5866 14.76452915442309
GAOFEN-1 03             
1 43260U 18031B   26165.49806500  .00000631  00000+0  98094-4 0  9993
2 43260  98.0524 227.8913 0003796  84.4789 275.6853 14.76465565442298
GAOFEN-1 04             
1 43262U 18031D   26165.54151634  .00001236  00000+0  18498-3 0  9993
2 43262  98.0536 228.1249 0002262  85.1906 274.9562 14.76477748442290
SENTINEL-3B             
1 43437U 18039A   26165.17411822  .00000102  00000+0  60315-4 0  9999
2 43437  98.6249 232.7495 0000753  83.4735 276.6531 14.26734006423695
GAOFEN-5 01             
1 43461U 18043A   26165.45853189  .00000278  00000+0  67275-4 0  9994
2 43461  98.4568 136.9874 0003035  88.0716 272.0831 14.60603679431293
GAOFEN-6                
1 43484U 18048A   26165.49609929  .00000961  00000+0  14468-3 0  9993
2 43484  97.8553 228.3117 0011626 176.0515 184.0789 14.76597015432996
GAOFEN-11 01            
1 43585U 18063A   26165.53537664  .00018650  00000+0  27706-3 0  9996
2 43585  97.1298 232.4228 0003461   9.6326 350.4995 15.55224491439937
ICESAT-2                
1 43613U 18070A   26165.53587618  .00009137  00000+0  33199-3 0  9993
2 43613  92.0078 290.2625 0005902 112.2743 247.9133 15.28241837432051
HYSIS                   
1 43719U 18096A   26165.50466582  .00001548  00000+0  21813-3 0  9999
2 43719  97.9848 232.2740 0001894 108.4673 251.6744 14.78693358407028
KAZSTSAT                
1 43783U 18099AB  26165.09534199  .00001392  00000+0  11678-3 0  9992
2 43783  97.4265 197.1643 0008333  77.8694 282.3463 14.99857659410847
